{
  "links" : {
    "next" : "https://api.nasa.gov/neo/rest/v1/feed?start_date=2012-06-09&end_date=2012-06-09&detailed=true&api_key=t0TVs3DtDT2H8Oy2Zy8m2eVrNsAVKAexjcZXUckd",
    "prev" : "https://api.nasa.gov/neo/rest/v1/feed?start_date=2012-06-07&end_date=2012-06-07&detailed=true&api_key=t0TVs3DtDT2H8Oy2Zy8m2eVrNsAVKAexjcZXUckd",
    "self" : "https://api.nasa.gov/neo/rest/v1/feed?start_date=2012-06-08&end_date=2012-06-08&detailed=true&api_key=t0TVs3DtDT2H8Oy2Zy8m2eVrNsAVKAexjcZXUckd"
  },
  "element_count" : 7,
  "near_earth_objects" : {
    "2012-06-08" : [ {
      "links" : {
        "self" : "https://api.nasa.gov/neo/rest/v1/neo/3741151?api_key=t0TVs3DtDT2H8Oy2Zy8m2eVrNsAVKAexjcZXUckd"
      },
      "neo_reference_id" : "3741151",
      "name" : "(2016 CE)",
      "nasa_jpl_url" : "http://ssd.jpl.nasa.gov/sbdb.cgi?sstr=3741151",
      "absolute_magnitude_h" : 28.5,
      "estimated_diameter" : {
        "kilometers" : {
          "estimated_diameter_min" : 0.0053034072,
          "estimated_diameter_max" : 0.0118587791
        },
        "meters" : {
          "estimated_diameter_min" : 5.3034072332,
          "estimated_diameter_max" : 11.8587790858
        },
        "miles" : {
          "estimated_diameter_min" : 0.0032953835,
          "estimated_diameter_max" : 0.0073687014
        },
        "feet" : {
          "estimated_diameter_min" : 17.3996305869,
          "estimated_diameter_max" : 38.9067567758
        }
      },
      "is_potentially_hazardous_asteroid" : false,
      "close_approach_data" : [ {
        "close_approach_date" : "2012-06-08",
        "epoch_date_close_approach" : 1339138800000,
        "relative_velocity" : {
          "kilometers_per_second" : "14.1199663971",
          "kilometers_per_hour" : "50831.8790294459",
          "miles_per_hour" : "31584.9528336021"
        },
        "miss_distance" : {
          "astronomical" : "0.415132236",
          "lunar" : "161.4864349365",
          "kilometers" : "62102896",
          "miles" : "38588952"
        },
        "orbiting_body" : "Earth"
      } ],
      "orbital_data" : {
        "orbit_id" : "4",
        "orbit_determination_date" : "2017-04-06 08:28:45",
        "orbit_uncertainty" : "6",
        "minimum_orbit_intersection" : ".000101844",
        "jupiter_tisserand_invariant" : "6.890",
        "epoch_osculation" : "2458000.5",
        "eccentricity" : ".2854391572803602",
        "semi_major_axis" : ".8503429056473876",
        "inclination" : "5.778161233838581",
        "ascending_node_longitude" : "315.8789167082497",
        "orbital_period" : "286.4109158552822",
        "perihelion_distance" : ".6076217432600644",
        "perihelion_argument" : "316.2954172370589",
        "aphelion_distance" : "1.093064068034711",
        "perihelion_time" : "2458084.494033036938",
        "mean_anomaly" : "254.4249320840256",
        "mean_motion" : "1.25693533336523",
        "equinox" : "J2000"
      }
    } ]
  }
}